ONEWEB-0629             
1 55170U 23004AG  25293.30706113 -.00000130  00000+0 -36788-3 0  9999
2 55170  87.9111  53.5810 0001323  97.8445 262.2837 13.17650083135996
ONEWEB-0631             
1 55171U 23004AH  25293.25552506  .00000004  00000+0 -23801-4 0  9991
2 55171  87.9236  23.0800 0002323  94.0029 266.1369 13.18686525138058
ONEWEB-0709             
1 55172U 23004AJ  25292.94581093 -.00000574  00000+0 -16568-2 0  9993
2 55172  87.8822  68.9331 0002467 105.0982 255.0419 13.11416922134386
ONEWEB-0710             
1 55173U 23004AK  25293.32142514  .00000008  00000+0 -13114-4 0  9995
2 55173  87.9105  53.5723 0001683  92.2490 267.8834 13.17648164135998
ONEWEB-0711             
1 55174U 23004AL  25293.29848684  .00000482  00000+0  13230-2 0  9995
2 55174  87.8831  68.8325 0001651  68.2096 291.9207 13.11415534134393
ONEWEB-0713             
1 55175U 23004AM  25293.31712469 -.00000187  00000+0 -56375-3 0  9992
2 55175  87.8825  68.8339 0001573  86.0448 274.0860 13.11414168134382
ONEWEB-0715             
1 55176U 23004AN  25293.31204601 -.00000026  00000+0 -10846-3 0  9992
2 55176  87.8827  68.8345 0002347  94.1550 265.9846 13.11414491134423
ONEWEB-0716             
1 55177U 23004AP  25293.31466445  .00000036  00000+0  58754-4 0  9999
2 55177  87.9106  53.5736 0001604 106.4261 253.7047 13.17647254135993
ONEWEB-0717             
1 55178U 23004AQ  25293.29779997  .00000033  00000+0  52383-4 0  9995
2 55178  87.9118  53.5432 0001868  75.9605 284.1734 13.17648079136048
ONEWEB-0719             
1 55179U 23004AR  25293.30792811  .00000014  00000+0  24927-5 0  9991
2 55179  87.9116  53.5237 0001449 102.3264 257.8030 13.17648724135997
ONEWEB-0530             
1 55796U 23029A   25293.24445348  .00000039  00000+0  64994-4 0  9990
2 55796  87.9208 322.3381 0001706  78.9726 281.1600 13.20769698129475
ONEWEB-0534             
1 55797U 23029B   25293.15607099 -.00000016  00000+0 -72478-4 0  9997
2 55797  87.9204 322.3578 0001791  97.4274 262.7063 13.20770009129463
ONEWEB-0556             
1 55798U 23029C   25293.23813436  .00000045  00000+0  78230-4 0  9993
2 55798  87.9210 322.3390 0001094  96.8018 263.3240 13.20769626129476
ONEWEB-0562             
1 55799U 23029D   25293.14976687  .00000002  00000+0 -26402-4 0  9990
2 55799  87.9204 322.3415 0001302  67.9594 292.1677 13.20771448129466
ONEWEB-0563             
1 55800U 23029E   25293.14343853  .00000159  00000+0  35934-3 0  9997
2 55800  87.9211 322.3674 0001745 103.4394 256.6934 13.20768893129459
ONEWEB-0564             
1 55801U 23029F   25293.13713727  .00000053  00000+0  97353-4 0  9995
2 55801  87.9204 322.3476 0001644  83.6316 276.5005 13.20770152129465
ONEWEB-0638             
1 55802U 23029G   25293.16533765 -.00000103  00000+0 -31340-3 0  9992
2 55802  87.9022 337.5851 0001338  96.1080 264.0202 13.14504249127864
