[{"OBJECT_NAME":"ONEWEB-0629","OBJECT_ID":"2023-004AG","EPOCH":"2025-10-20T07:22:10.081632","MEAN_MOTION":13.17650083,"ECCENTRICITY":0.00013239,"INCLINATION":87.9111,"RA_OF_ASC_NODE":53.581,"ARG_OF_PERICENTER":97.8445,"MEAN_ANOMALY":262.2837,"EPHEMERIS_TYPE":0,"CLASSIFICATION_TYPE":"U","NORAD_CAT_ID":55170,"ELEMENT_SET_NO":999,"REV_AT_EPOCH":13599,"BSTAR":-0.00036787787,"MEAN_MOTION_DOT":-1.3e-6,"MEAN_MOTION_DDOT":0},{"OBJECT_NAME":"ONEWEB-0631","OBJECT_ID":"2023-004AH","EPOCH":"2025-10-20T06:07:57.365184","MEAN_MOTION":13.18686525,"ECCENTRICITY":0.00023231,"INCLINATION":87.9236,"RA_OF_ASC_NODE":23.08,"ARG_OF_PERICENTER":94.0029,"MEAN_ANOMALY":266.1369,"EPHEMERIS_TYPE":0,"CLASSIFICATION_TYPE":"U","NORAD_CAT_ID":55171,"ELEMENT_SET_NO":999,"REV_AT_EPOCH":13805,"BSTAR":-2.3800666e-5,"MEAN_MOTION_DOT":4.0e-8,"MEAN_MOTION_DDOT":0},{"OBJECT_NAME":"ONEWEB-0709","OBJECT_ID":"2023-004AJ","EPOCH":"2025-10-19T22:41:58.064352","MEAN_MOTION":13.11416922,"ECCENTRICITY":0.0002467,"INCLINATION":87.8822,"RA_OF_ASC_NODE":68.9331,"ARG_OF_PERICENTER":105.0982,"MEAN_ANOMALY":255.0419,"EPHEMERIS_TYPE":0,"CLASSIFICATION_TYPE":"U","NORAD_CAT_ID":55172,"ELEMENT_SET_NO":999,"REV_AT_EPOCH":13438,"BSTAR":-0.0016568,"MEAN_MOTION_DOT":-5.74e-6,"MEAN_MOTION_DDOT":0},{"OBJECT_NAME":"ONEWEB-0710","OBJECT_ID":"2023-004AK","EPOCH":"2025-10-20T07:42:51.132096","MEAN_MOTION":13.17648164,"ECCENTRICITY":0.0001683,"INCLINATION":87.9105,"RA_OF_ASC_NODE":53.5723,"ARG_OF_PERICENTER":92.249,"MEAN_ANOMALY":267.8834,"EPHEMERIS_TYPE":0,"CLASSIFICATION_TYPE":"U","NORAD_CAT_ID":55173,"ELEMENT_SET_NO":999,"REV_AT_EPOCH":13599,"BSTAR":-1.3114358e-5,"MEAN_MOTION_DOT":8.0e-8,"MEAN_MOTION_DDOT":0},{"OBJECT_NAME":"ONEWEB-0711","OBJECT_ID":"2023-004AL","EPOCH":"2025-10-20T07:09:49.262976","MEAN_MOTION":13.11415534,"ECCENTRICITY":0.00016513,"INCLINATION":87.8831,"RA_OF_ASC_NODE":68.8325,"ARG_OF_PERICENTER":68.2096,"MEAN_ANOMALY":291.9207,"EPHEMERIS_TYPE":0,"CLASSIFICATION_TYPE":"U","NORAD_CAT_ID":55174,"ELEMENT_SET_NO":999,"REV_AT_EPOCH":13439,"BSTAR":0.0013229721,"MEAN_MOTION_DOT":4.82e-6,"MEAN_MOTION_DDOT":0},{"OBJECT_NAME":"ONEWEB-0713","OBJECT_ID":"2023-004AM","EPOCH":"2025-10-20T07:36:39.573216","MEAN_MOTION":13.11414168,"ECCENTRICITY":0.00015739,"INCLINATION":87.8825,"RA_OF_ASC_NODE":68.8339,"ARG_OF_PERICENTER":86.0448,"MEAN_ANOMALY":274.086,"EPHEMERIS_TYPE":0,"CLASSIFICATION_TYPE":"U","NORAD_CAT_ID":55175,"ELEMENT_SET_NO":999,"REV_AT_EPOCH":13438,"BSTAR":-0.00056374934,"MEAN_MOTION_DOT":-1.87e-6,"MEAN_MOTION_DDOT":0},{"OBJECT_NAME":"ONEWEB-0715","OBJECT_ID":"2023-004AN","EPOCH":"2025-10-20T07:29:20.775264","MEAN_MOTION":13.11414491,"ECCENTRICITY":0.0002347,"INCLINATION":87.8827,"RA_OF_ASC_NODE":68.8345,"ARG_OF_PERICENTER":94.155,"MEAN_ANOMALY":265.9846,"EPHEMERIS_TYPE":0,"CLASSIFICATION_TYPE":"U","NORAD_CAT_ID":55176,"ELEMENT_SET_NO":999,"REV_AT_EPOCH":13442,"BSTAR":-0.00010845966,"MEAN_MOTION_DOT":-2.6e-7,"MEAN_MOTION_DDOT":0},{"OBJECT_NAME":"ONEWEB-0716","OBJECT_ID":"2023-004AP","EPOCH":"2025-10-20T07:33:07.008480","MEAN_MOTION":13.17647254,"ECCENTRICITY":0.00016045,"INCLINATION":87.9106,"RA_OF_ASC_NODE":53.5736,"ARG_OF_PERICENTER":106.4261,"MEAN_ANOMALY":253.7047,"EPHEMERIS_TYPE":0,"CLASSIFICATION_TYPE":"U","NORAD_CAT_ID":55177,"ELEMENT_SET_NO":999,"REV_AT_EPOCH":13599,"BSTAR":5.8753891e-5,"MEAN_MOTION_DOT":3.6e-7,"MEAN_MOTION_DDOT":0},{"OBJECT_NAME":"ONEWEB-0717","OBJECT_ID":"2023-004AQ","EPOCH":"2025-10-20T07:08:49.917408","MEAN_MOTION":13.17648079,"ECCENTRICITY":0.00018684,"INCLINATION":87.9118,"RA_OF_ASC_NODE":53.5432,"ARG_OF_PERICENTER":75.9605,"MEAN_ANOMALY":284.1734,"EPHEMERIS_TYPE":0,"CLASSIFICATION_TYPE":"U","NORAD_CAT_ID":55178,"ELEMENT_SET_NO":999,"REV_AT_EPOCH":13604,"BSTAR":5.2383439e-5,"MEAN_MOTION_DOT":3.3e-7,"MEAN_MOTION_DDOT":0},{"OBJECT_NAME":"ONEWEB-0719","OBJECT_ID":"2023-004AR","EPOCH":"2025-10-20T07:23:24.988704","MEAN_MOTION":13.17648724,"ECCENTRICITY":0.00014496,"INCLINATION":87.9116,"RA_OF_ASC_NODE":53.5237,"ARG_OF_PERICENTER":102.3264,"MEAN_ANOMALY":257.803,"EPHEMERIS_TYPE":0,"CLASSIFICATION_TYPE":"U","NORAD_CAT_ID":55179,"ELEMENT_SET_NO":999,"REV_AT_EPOCH":13599,"BSTAR":2.492714e-6,"MEAN_MOTION_DOT":1.4e-7,"MEAN_MOTION_DDOT":0},{"OBJECT_NAME":"ONEWEB-0530","OBJECT_ID":"2023-029A","EPOCH":"2025-10-20T05:52:00.780672","MEAN_MOTION":13.20769698,"ECCENTRICITY":0.00017067,"INCLINATION":87.9208,"RA_OF_ASC_NODE":322.3381,"ARG_OF_PERICENTER":78.9726,"MEAN_ANOMALY":281.16,"EPHEMERIS_TYPE":0,"CLASSIFICATION_TYPE":"U","NORAD_CAT_ID":55796,"ELEMENT_SET_NO":999,"REV_AT_EPOCH":12947,"BSTAR":6.4994489e-5,"MEAN_MOTION_DOT":3.9e-7,"MEAN_MOTION_DDOT":0},{"OBJECT_NAME":"ONEWEB-0534","OBJECT_ID":"2023-029B","EPOCH":"2025-10-20T03:44:44.533536","MEAN_MOTION":13.20770009,"ECCENTRICITY":0.00017911,"INCLINATION":87.9204,"RA_OF_ASC_NODE":322.3578,"ARG_OF_PERICENTER":97.4274,"MEAN_ANOMALY":262.7063,"EPHEMERIS_TYPE":0,"CLASSIFICATION_TYPE":"U","NORAD_CAT_ID":55797,"ELEMENT_SET_NO":999,"REV_AT_EPOCH":12946,"BSTAR":-7.2477522e-5,"MEAN_MOTION_DOT":-1.6e-7,"MEAN_MOTION_DDOT":0},{"OBJECT_NAME":"ONEWEB-0556","OBJECT_ID":"2023-029C","EPOCH":"2025-10-20T05:42:54.808704","MEAN_MOTION":13.20769626,"ECCENTRICITY":0.00010942,"INCLINATION":87.921,"RA_OF_ASC_NODE":322.339,"ARG_OF_PERICENTER":96.8018,"MEAN_ANOMALY":263.324,"EPHEMERIS_TYPE":0,"CLASSIFICATION_TYPE":"U","NORAD_CAT_ID":55798,"ELEMENT_SET_NO":999,"REV_AT_EPOCH":12947,"BSTAR":7.8229587e-5,"MEAN_MOTION_DOT":4.5e-7,"MEAN_MOTION_DDOT":0},{"OBJECT_NAME":"ONEWEB-0562","OBJECT_ID":"2023-029D","EPOCH":"2025-10-20T03:35:39.857568","MEAN_MOTION":13.20771448,"ECCENTRICITY":0.0001302,"INCLINATION":87.9204,"RA_OF_ASC_NODE":322.3415,"ARG_OF_PERICENTER":67.9594,"MEAN_ANOMALY":292.1677,"EPHEMERIS_TYPE":0,"CLASSIFICATION_TYPE":"U","NORAD_CAT_ID":55799,"ELEMENT_SET_NO":999,"REV_AT_EPOCH":12946,"BSTAR":-2.6402276e-5,"MEAN_MOTION_DOT":2.0e-8,"MEAN_MOTION_DDOT":0},{"OBJECT_NAME":"ONEWEB-0563","OBJECT_ID":"2023-029E","EPOCH":"2025-10-20T03:26:33.088992","MEAN_MOTION":13.20768893,"ECCENTRICITY":0.0001745,"INCLINATION":87.9211,"RA_OF_ASC_NODE":322.3674,"ARG_OF_PERICENTER":103.4394,"MEAN_ANOMALY":256.6934,"EPHEMERIS_TYPE":0,"CLASSIFICATION_TYPE":"U","NORAD_CAT_ID":55800,"ELEMENT_SET_NO":999,"REV_AT_EPOCH":12945,"BSTAR":0.00035934077,"MEAN_MOTION_DOT":1.59e-6,"MEAN_MOTION_DDOT":0},{"OBJECT_NAME":"ONEWEB-0564","OBJECT_ID":"2023-029F","EPOCH":"2025-10-20T03:17:28.660128","MEAN_MOTION":13.20770152,"ECCENTRICITY":0.00016445,"INCLINATION":87.9204,"RA_OF_ASC_NODE":322.3476,"ARG_OF_PERICENTER":83.6316,"MEAN_ANOMALY":276.5005,"EPHEMERIS_TYPE":0,"CLASSIFICATION_TYPE":"U","NORAD_CAT_ID":55801,"ELEMENT_SET_NO":999,"REV_AT_EPOCH":12946,"BSTAR":9.7352559e-5,"MEAN_MOTION_DOT":5.3e-7,"MEAN_MOTION_DDOT":0},{"OBJECT_NAME":"ONEWEB-0638","OBJECT_ID":"2023-029G","EPOCH":"2025-10-20T03:58:05.172960","MEAN_MOTION":13.14504249,"ECCENTRICITY":0.00013385,"INCLINATION":87.9022,"RA_OF_ASC_NODE":337.5851,"ARG_OF_PERICENTER":96.108,"MEAN_ANOMALY":264.0202,"EPHEMERIS_TYPE":0,"CLASSIFICATION_TYPE":"U","NORAD_CAT_ID":55802,"ELEMENT_SET_NO":999,"REV_AT_EPOCH":12786,"BSTAR":-0.00031339587,"MEAN_MOTION_DOT":-1.03e-6,"MEAN_MOTION_DDOT":0}]
